IRIDIUM 39              
1 25042U 97069D   25273.62842922  .00001374  00000+0  35410-3 0  9998
2 25042  86.3976 165.9725 0016447 320.6156  39.3852 14.49357433464236
IRIDIUM 38              
1 25043U 97069E   25273.30067471  .00000968  00000+0  31249-3 0  9996
2 25043  86.4030 188.9650 0004008  97.9186 262.2467 14.38213412461061
IRIDIUM 42              
1 25077U 97077A   25273.22714635  .00000976  00000+0  32643-3 0  9992
2 25077  86.4031 195.2869 0002803  97.1556 262.9959 14.36441900456279
IRIDIUM 44              
1 25078U 97077B   25273.45379944  .00000992  00000+0  30678-3 0  9992
2 25078  86.4033 176.8639 0003794  65.3803 294.7791 14.40337601458854
IRIDIUM 45              
1 25104U 97082A   25273.62883138  .00043821  00000+0  14165-2 0  9992
2 25104  86.3618 356.5536 0105609 295.6743  63.3625 15.26563426468100
IRIDIUM 24              
1 25105U 97082B   25273.63794302  .00001378  00000+0  41198-3 0  9996
2 25105  86.3931  35.5438 0013460  90.1117 270.1626 14.42213915458414
IRIDIUM 51              
1 25262U 98018A   25273.27211304  .00101161  00000+0  16967-2 0  9992
2 25262  86.3846   3.5104 0071942 203.2257 156.5747 15.48528201463230
IRIDIUM 57              
1 25273U 98019B   25273.60642252  .00000722  00000+0  24228-3 0  9993
2 25273  86.3904 101.0770 0002217  89.1439 271.0012 14.35963137439914
